{
  "norad_id": 55589,
  "name": "STARLINK-5697",
  "history": [
    {
      "epoch": "2026-03-28T12:33:54.831456",
      "apogee_km": 486.32733068108064,
      "perigee_km": 484.7802547763995,
      "latitude_deg": 41.88913774040748,
      "longitude_deg": 149.16092383977957,
      "semi_major_axis_km": 6863.690792728739,
      "eccentricity": 0.0001127,
      "inclination_deg": 43.0004,
      "raan_deg": 258.7907,
      "arg_perigee_deg": 267.989,
      "mean_anomaly_deg": 92.0832,
      "mean_motion_rev_day": 15.2674391
    }
  ]
}