{"fetched_at":"2026-03-29T02:12:04Z","count":15717,"tles":[{"name":"STARLINK-5697","line1":"1 55589U 23020W   26087.52355129 -.00000209  00000+0  18805-5 0  9992","line2":"2 55589  43.0004 258.7907 0001127 267.9890  92.0832 15.26743910171792","category":"Starlink"}]}